OBJECT_NAME,OBJECT_ID,EPOCH,MEAN_MOTION,ECCENTRICITY,INCLINATION,RA_OF_ASC_NODE,ARG_OF_PERICENTER,MEAN_ANOMALY,EPHEMERIS_TYPE,CLASSIFICATION_TYPE,NORAD_CAT_ID,ELEMENT_SET_NO,REV_AT_EPOCH,BSTAR,MEAN_MOTION_DOT,MEAN_MOTION_DDOT
STARLINK-6282,2023-061AK,2025-07-25T17:42:02.155680,15.02536066,.0001123,43.0040,337.7933,268.2121,91.8592,0,U,56407,999,12276,.57656E-4,.575E-5,0
STARLINK-6289,2023-061AL,2025-07-25T18:50:35.356416,15.02534983,.0001204,43.0042,337.2792,278.3640,81.7065,0,U,56408,999,12277,.10368E-3,.1197E-4,0
STARLINK-6241,2023-061AM,2025-07-25T17:34:02.447328,15.02536397,.0001142,43.0039,337.7507,263.9794,96.0919,0,U,56409,999,12276,.55853E-4,.551E-5,0
STARLINK-6281,2023-061AN,2025-07-25T17:13:15.843936,15.02537413,.000112,43.0039,337.6407,271.3946,88.6768,0,U,56410,999,12276,.45151E-4,.406E-5,0
STARLINK-6279,2023-061AP,2025-07-25T17:30:50.873472,15.02529118,.0001008,43.0040,337.7360,172.1137,187.9721,0,U,56411,999,12276,.14296E-3,.1728E-4,0
STARLINK-6278,2023-061AQ,2025-07-25T18:41:00.596832,15.02532378,.0000995,43.0043,337.2329,235.5593,124.5156,0,U,56412,999,12277,-.62059E-4,-.1042E-4,0
STARLINK-6258,2023-061AR,2025-07-25T18:53:47.071968,15.02550839,.000158,43.0052,337.3050,267.2325,92.8337,0,U,56413,999,12277,-.22932E-3,-.3301E-4,0
STARLINK-5136,2023-061AS,2025-07-25T09:00:14.447808,15.02534207,.0001194,43.0034,339.3732,277.8453,82.2254,0,U,56414,999,12300,.89752E-4,.1009E-4,0
STARLINK-6268,2023-061AT,2025-07-26T00:00:02.000160,15.15705097,.000113,43.0000,335.1769,264.4769,215.5522,0,U,56415,999,12310,.69111E-1,.1468463E-1,0
STARLINK-6260,2023-061AU,2025-07-25T00:38:09.898080,15.02536286,.0001107,43.0046,328.9111,271.0500,89.0215,0,U,56416,999,12280,-.66357E-4,-.11E-4,0
STARLINK-6261,2023-061AV,2025-07-25T18:36:12.567744,15.02533534,.000157,43.0057,337.2129,264.4262,95.6401,0,U,56417,999,12277,.25565E-5,-.169E-5,0
STARLINK-5356,2023-061AW,2025-07-25T08:17:37.807872,15.02534583,.0001224,43.0051,327.0035,270.8987,89.1715,0,U,56418,999,12285,-.60578E-5,-.285E-5,0
STARLINK-5350,2023-061AX,2025-07-25T08:57:03.038976,15.02529640,.0001403,43.0060,339.3556,266.4265,93.6417,0,U,56419,999,12271,-.29709E-4,-.605E-5,0
STARLINK-6272,2023-061AY,2025-07-25T09:48:33.867648,15.02526052,.0001652,43.0021,326.6139,278.3650,81.7004,0,U,56420,999,12315,-.10022E-3,-.1557E-4,0
STARLINK-6270,2023-061AZ,2025-07-25T08:41:37.004640,15.02530776,.0001573,43.0050,327.1258,282.3864,77.6803,0,U,56421,999,12285,.15462E-3,.1885E-4,0
STARLINK-6236,2023-061BA,2025-07-25T09:38:58.683840,15.02528560,.0001648,43.0064,326.5688,267.6720,92.3934,0,U,56422,999,12286,.30413E-4,.207E-5,0
STARLINK-6239,2023-061BB,2025-07-25T09:43:45.954336,15.02533103,.0001276,43.0042,326.5910,267.7534,92.3162,0,U,56423,999,12286,.38859E-4,.321E-5,0
STARLINK-6242,2023-061BC,2025-07-25T17:28:01.274592,15.02537822,.0000658,43.0026,324.7078,242.4915,117.5860,0,U,56424,999,12291,-.43794E-4,-.795E-5,0
STARLINK-6224,2023-061BD,2025-07-25T17:32:48.888960,15.02535777,.0001395,43.0055,324.7324,266.3840,93.6843,0,U,56425,999,12291,.74935E-4,.809E-5,0
STARLINK-5352,2023-061BE,2025-07-25T09:00:46.541952,15.02535337,.0001401,43.0055,327.2091,270.8898,89.1784,0,U,56426,999,12285,.55521E-4,.546E-5,0
STARLINK-5724,2023-061BF,2025-07-25T00:47:45.512160,15.02530322,.0001386,43.0047,328.9443,264.5115,95.5569,0,U,56427,999,12280,-.2278E-4,-.511E-5,0
STARLINK-6238,2023-061BG,2025-07-25T17:18:25.505856,15.02537951,.0001803,43.0038,324.6559,280.8883,79.1756,0,U,56428,999,12291,.70385E-4,.747E-5,0
STARLINK-6264,2023-061BH,2025-07-25T17:13:38.289792,15.02533641,.000149,43.0055,324.6304,272.4161,87.6510,0,U,56429,999,12291,.88677E-5,-.84E-6,0
STARLINK-5990,2023-064A,2025-07-26T04:02:54.978432,14.98331644,.0002707,70.0005,355.6682,265.4753,94.6097,0,U,56448,999,12167,.25593E-4,.212E-5,0
STARLINK-5993,2023-064B,2025-07-26T02:56:35.710656,14.98333702,.0003155,70.0005,355.9077,268.8482,91.2316,0,U,56449,999,12166,-.56142E-4,-.763E-5,0
STARLINK-5970,2023-064C,2025-07-26T03:56:54.070080,14.98333454,.0003064,70.0006,355.6534,267.5599,92.5209,0,U,56450,999,12167,.38336E-4,.364E-5,0
STARLINK-5985,2023-064D,2025-07-26T02:50:34.976832,14.98331631,.0003174,70.0006,355.8940,269.6872,90.3923,0,U,56451,999,12166,-.13851E-4,-.258E-5,0
STARLINK-5986,2023-064E,2025-07-26T02:44:34.510848,14.98334490,.0002961,70.0005,355.8793,271.1664,88.9156,0,U,56452,999,12166,-.3042E-4,-.456E-5,0
STARLINK-5935,2023-064F,2025-07-25T17:01:45.685056,14.98329965,.0002976,70.0005,356.8741,269.1623,90.9195,0,U,56453,999,12124,.84046E-4,.91E-5,0
STARLINK-5959,2023-064G,2025-07-26T03:44:38.593536,14.98331568,.000313,70.0001,355.6224,269.8898,90.1902,0,U,56454,999,12167,.36445E-4,.342E-5,0
STARLINK-5987,2023-064H,2025-07-25T18:01:49.253664,14.98321353,.0003162,70.0003,356.6173,270.9077,89.1720,0,U,56455,999,12125,-.11467E-3,-.1461E-4,0
STARLINK-5995,2023-064J,2025-07-26T03:56:39.826176,14.98332117,.0003136,70.0006,355.6521,268.3797,91.7003,0,U,56456,999,12167,.27112E-4,.231E-5,0
STARLINK-5994,2023-064K,2025-07-26T03:50:39.183936,14.98333047,.0003126,70.0003,355.6366,268.7599,91.3202,0,U,56457,999,12167,.3523E-4,.327E-5,0
STARLINK-6050,2023-064L,2025-07-25T18:25:52.183776,14.98332176,.0003185,70.0005,356.6751,269.0887,90.9907,0,U,56458,999,12125,.21308E-4,.161E-5,0
STARLINK-6048,2023-064M,2025-07-25T17:38:01.462560,14.98328356,.0003153,70.0004,356.5603,268.8603,91.2194,0,U,56459,999,12124,-.24091E-4,-.38E-5,0
STARLINK-6047,2023-064N,2025-07-26T03:32:37.408416,14.98331538,.0003024,70.0001,355.5931,268.6504,91.4309,0,U,56460,999,12167,.52901E-5,-.3E-6,0
STARLINK-6037,2023-064P,2025-07-25T17:31:46.542720,14.98327913,.0003126,70.0004,356.5433,267.5651,92.5150,0,U,56461,999,12125,-.51979E-4,-.713E-5,0
STARLINK-6045,2023-064Q,2025-07-25T11:36:50.420160,14.98335269,.0003257,70.0004,317.1190,271.4426,88.6360,0,U,56462,999,12220,-.9742E-4,-.1255E-4,0
STARLINK-6051,2023-064R,2025-07-25T18:31:52.871808,14.98336400,.000277,70.0007,356.6840,264.0763,96.0080,0,U,56463,999,12125,-.24859E-4,-.39E-5,0
STARLINK-6043,2023-064S,2025-07-26T03:26:36.654720,14.98331460,.0003008,70.0004,355.5776,270.9354,89.1460,0,U,56464,999,12167,-.30961E-4,-.462E-5,0
STARLINK-6054,2023-064T,2025-07-25T11:48:36.737568,14.98338824,.0003477,70.0005,317.1445,271.9873,88.0888,0,U,56465,999,12220,.93938E-4,.1028E-4,0
STARLINK-6053,2023-064U,2025-07-26T03:14:35.269152,14.98332002,.0003031,70.0002,355.5494,266.8949,93.1863,0,U,56466,999,12167,-.33703E-4,-.495E-5,0
STARLINK-6055,2023-064V,2025-07-25T18:07:30.822240,14.98332514,.0003273,70.0006,336.7638,270.6672,89.4112,0,U,56467,999,12174,-.28499E-4,-.433E-5,0
STARLINK-5998,2023-064W,2025-07-26T03:02:34.023552,14.98331229,.0003146,70.0005,355.5181,268.6941,91.3858,0,U,56468,999,12167,-.11715E-4,-.233E-5,0
STARLINK-5518,2023-064X,2025-07-26T02:26:13.107840,14.98332898,.0003309,70.0005,335.9662,269.5769,90.5011,0,U,56469,999,12215,.17566E-6,-.91E-6,0
STARLINK-5523,2023-064Y,2025-07-25T18:13:31.797120,14.98329239,.0002891,70.0007,336.7787,270.1131,89.9697,0,U,56470,999,12174,-.18891E-4,-.318E-5,0
STARLINK-5521,2023-064Z,2025-07-26T03:38:18.949344,14.98344814,.0003735,70.0029,335.7385,270.6538,89.4193,0,U,56471,999,12216,.1297E-3,.1455E-4,0
STARLINK-5038,2023-064AA,2025-07-25T17:49:29.165088,14.98332793,.0003047,70.0007,336.7195,269.3567,90.7243,0,U,56472,999,12174,.30021E-4,.265E-5,0
STARLINK-5524,2023-064AC,2025-07-26T03:56:21.251040,14.98321218,.0002755,70.0005,335.7834,270.0820,90.0023,0,U,56474,999,12216,-.71107E-4,-.941E-5,0
STARLINK-5541,2023-064AD,2025-07-25T17:43:28.179840,14.98333079,.0003203,70.0008,336.7011,270.9492,89.1300,0,U,56475,999,12174,.25575E-5,-.63E-6,0
STARLINK-5545,2023-064AE,2025-07-25T17:55:29.677728,14.98328286,.0003277,70.0007,336.7323,271.5988,88.4796,0,U,56476,999,12174,.17128E-3,.1951E-4,0
STARLINK-5534,2023-064AF,2025-07-25T17:19:40.190016,14.98322315,.0003433,70.0005,336.6463,276.1096,83.9672,0,U,56477,999,12174,-.11395E-3,-.1452E-4,0
STARLINK-6041,2023-064AG,2025-07-26T03:14:16.057248,14.98330230,.0003271,70.0008,335.6803,270.6910,89.3874,0,U,56478,999,12216,-.27225E-4,-.418E-5,0
STARLINK-6044,2023-064AH,2025-07-25T18:37:31.889856,14.98332619,.0002709,70.0008,336.4328,271.1781,88.9067,0,U,56479,999,12175,.54049E-4,.552E-5,0
STARLINK-6214,2023-064AJ,2025-07-26T02:27:21.097728,15.13720875,.0001006,69.9985,320.8495,221.3756,138.7335,0,U,56480,999,12253,.74927E-3,.13444E-3,0
STARLINK-6222,2023-064AK,2025-07-26T02:50:13.439040,14.98331562,.0003198,70.0006,335.6204,270.4778,89.6015,0,U,56481,999,12216,.15184E-4,.88E-6,0
STARLINK-6220,2023-064AL,2025-07-26T03:08:15.345888,14.98331758,.0003267,70.0008,335.6647,270.1746,89.9039,0,U,56482,999,12216,-.29684E-4,-.447E-5,0
STARLINK-5868,2023-064AM,2025-07-26T03:02:14.754624,14.98331859,.0003315,70.0009,335.6467,271.8490,88.2289,0,U,56483,999,12216,-.76804E-5,-.185E-5,0
STARLINK-6221,2023-064AN,2025-07-25T17:19:25.889952,14.98332842,.000286,70.0008,336.6451,269.9218,90.1614,0,U,56484,999,12174,.1678E-4,.107E-5,0
STARLINK-6210,2023-064AP,2025-07-26T02:32:12.354720,14.98327234,.0002701,70.0007,335.5742,269.2338,90.8511,0,U,56485,999,12216,.15652E-3,.1775E-4,0
STARLINK-6201,2023-064AQ,2025-07-26T02:44:12.775200,14.98331948,.0003221,70.0008,335.6059,270.0300,90.0490,0,U,56486,999,12216,.22147E-5,-.67E-6,0
STARLINK-6196,2023-064AR,2025-07-26T03:43:57.774720,14.98337604,.0003304,70.0027,315.4820,277.9373,82.1411,0,U,56487,999,12266,.72605E-4,.774E-5,0
STARLINK-6204,2023-064AS,2025-07-26T03:07:56.248032,14.98331697,.0003155,69.9995,315.7932,271.5968,88.4830,0,U,56488,999,12265,-.40459E-4,-.576E-5,0
STARLINK-5923,2023-064AT,2025-07-25T17:13:05.685024,14.98323495,.0003216,70.0000,316.7596,271.2377,88.8414,0,U,56489,999,12223,.1441E-3,.1626E-4,0
STARLINK-5873,2023-064AU,2025-07-25T17:43:08.824512,14.98335692,.0003283,70.0000,316.8314,271.0433,89.0350,0,U,56490,999,12223,.10757E-3,.1191E-4,0
STARLINK-5842,2023-064AV,2025-07-25T17:07:05.013408,14.98333893,.0003202,70.0001,316.7457,270.4741,89.6051,0,U,56491,999,12223,.52718E-4,.536E-5,0
